[{"OBJECT_NAME":"STARLINK-3279","OBJECT_ID":"2021-125AF","EPOCH":"2026-03-09T19:25:37.096896","MEAN_MOTION":15.08834582,"ECCENTRICITY":0.00016071,"INCLINATION":53.2176,"RA_OF_ASC_NODE":248.624,"ARG_OF_PERICENTER":95.7602,"MEAN_ANOMALY":264.3573,"EPHEMERIS_TYPE":0,"CLASSIFICATION_TYPE":"U","NORAD_CAT_ID":50185,"ELEMENT_SET_NO":999,"REV_AT_EPOCH":23662,"BSTAR":3.4081888e-5,"MEAN_MOTION_DOT":2.54e-6,"MEAN_MOTION_DDOT":0},{"OBJECT_NAME":"CZ-4C R\/B","OBJECT_ID":"2018-031F","EPOCH":"2026-03-09T18:17:36.260736","MEAN_MOTION":15.22605712,"ECCENTRICITY":0.00804945,"INCLINATION":98.1311,"RA_OF_ASC_NODE":341.6719,"ARG_OF_PERICENTER":21.712,"MEAN_ANOMALY":338.7495,"EPHEMERIS_TYPE":0,"CLASSIFICATION_TYPE":"U","NORAD_CAT_ID":43264,"ELEMENT_SET_NO":999,"REV_AT_EPOCH":43612,"BSTAR":0.00044368098,"MEAN_MOTION_DOT":0.00011203,"MEAN_MOTION_DDOT":0}]
